[{"OBJECT_NAME":"COSMOS 2251 DEB","OBJECT_ID":"1993-036AXJ","EPOCH":"2026-04-27T02:13:36.076224","MEAN_MOTION":15.05619779,"ECCENTRICITY":0.00044306,"INCLINATION":74.0313,"RA_OF_ASC_NODE":58.6044,"ARG_OF_PERICENTER":150.3381,"MEAN_ANOMALY":209.8061,"EPHEMERIS_TYPE":0,"CLASSIFICATION_TYPE":"U","NORAD_CAT_ID":36047,"ELEMENT_SET_NO":999,"REV_AT_EPOCH":67970,"BSTAR":0.0026774635,"MEAN_MOTION_DOT":0.00038823,"MEAN_MOTION_DDOT":0},{"OBJECT_NAME":"COSMOS 2251 DEB","OBJECT_ID":"1993-036AXK","EPOCH":"2026-04-26T05:49:02.793216","MEAN_MOTION":14.38075176,"ECCENTRICITY":0.00251296,"INCLINATION":74.0575,"RA_OF_ASC_NODE":51.8841,"ARG_OF_PERICENTER":72.1189,"MEAN_ANOMALY":80.223,"EPHEMERIS_TYPE":0,"CLASSIFICATION_TYPE":"U","NORAD_CAT_ID":36048,"ELEMENT_SET_NO":999,"REV_AT_EPOCH":87435,"BSTAR":0.00022788597,"MEAN_MOTION_DOT":6.67e-6,"MEAN_MOTION_DDOT":0},{"OBJECT_NAME":"COSMOS 2251 DEB","OBJECT_ID":"1993-036AXL","EPOCH":"2026-04-26T06:46:19.119072","MEAN_MOTION":14.63813173,"ECCENTRICITY":0.00113274,"INCLINATION":74.0301,"RA_OF_ASC_NODE":221.1013,"ARG_OF_PERICENTER":276.9137,"MEAN_ANOMALY":83.0741,"EPHEMERIS_TYPE":0,"CLASSIFICATION_TYPE":"U","NORAD_CAT_ID":36049,"ELEMENT_SET_NO":999,"REV_AT_EPOCH":87332,"BSTAR":0.0011261075,"MEAN_MOTION_DOT":5.857e-5,"MEAN_MOTION_DDOT":0},{"OBJECT_NAME":"COSMOS 2251 DEB","OBJECT_ID":"1993-036AXM","EPOCH":"2026-04-25T05:05:36.965760","MEAN_MOTION":15.03509352,"ECCENTRICITY":0.0083437,"INCLINATION":74.03,"RA_OF_ASC_NODE":281.6313,"ARG_OF_PERICENTER":325.1476,"MEAN_ANOMALY":34.4264,"EPHEMERIS_TYPE":0,"CLASSIFICATION_TYPE":"U","NORAD_CAT_ID":36050,"ELEMENT_SET_NO":999,"REV_AT_EPOCH":69039,"BSTAR":0.00041811,"MEAN_MOTION_DOT":6.115e-5,"MEAN_MOTION_DDOT":0},{"OBJECT_NAME":"COSMOS 2251 DEB","OBJECT_ID":"1993-036AXQ","EPOCH":"2026-04-26T15:49:19.808256","MEAN_MOTION":14.59202621,"ECCENTRICITY":0.00309965,"INCLINATION":73.8696,"RA_OF_ASC_NODE":253.3462,"ARG_OF_PERICENTER":173.6406,"MEAN_ANOMALY":186.5159,"EPHEMERIS_TYPE":0,"CLASSIFICATION_TYPE":"U","NORAD_CAT_ID":36053,"ELEMENT_SET_NO":999,"REV_AT_EPOCH":89411,"BSTAR":0.0018810086,"MEAN_MOTION_DOT":8.911e-5,"MEAN_MOTION_DDOT":0},{"OBJECT_NAME":"COSMOS 2251 DEB","OBJECT_ID":"1993-036AXV","EPOCH":"2026-04-26T18:19:24.351456","MEAN_MOTION":14.59435444,"ECCENTRICITY":0.00468283,"INCLINATION":74.0188,"RA_OF_ASC_NODE":135.9507,"ARG_OF_PERICENTER":235.8568,"MEAN_ANOMALY":123.8152,"EPHEMERIS_TYPE":0,"CLASSIFICATION_TYPE":"U","NORAD_CAT_ID":36058,"ELEMENT_SET_NO":999,"REV_AT_EPOCH":68080,"BSTAR":0.00038116131,"MEAN_MOTION_DOT":1.804e-5,"MEAN_MOTION_DDOT":0},{"OBJECT_NAME":"COSMOS 2251 DEB","OBJECT_ID":"1993-036AXX","EPOCH":"2026-04-26T08:30:35.536608","MEAN_MOTION":14.42323501,"ECCENTRICITY":0.00143367,"INCLINATION":74.0301,"RA_OF_ASC_NODE":344.8577,"ARG_OF_PERICENTER":54.0596,"MEAN_ANOMALY":306.1888,"EPHEMERIS_TYPE":0,"CLASSIFICATION_TYPE":"U","NORAD_CAT_ID":36060,"ELEMENT_SET_NO":999,"REV_AT_EPOCH":86950,"BSTAR":0.00026502233,"MEAN_MOTION_DOT":8.5e-6,"MEAN_MOTION_DDOT":0},{"OBJECT_NAME":"COSMOS 2251 DEB","OBJECT_ID":"1993-036AXY","EPOCH":"2026-04-27T07:26:56.601312","MEAN_MOTION":14.33954006,"ECCENTRICITY":0.00385192,"INCLINATION":74.0211,"RA_OF_ASC_NODE":111.5629,"ARG_OF_PERICENTER":169.9205,"MEAN_ANOMALY":190.2729,"EPHEMERIS_TYPE":0,"CLASSIFICATION_TYPE":"U","NORAD_CAT_ID":36061,"ELEMENT_SET_NO":999,"REV_AT_EPOCH":67047,"BSTAR":0.00024312067,"MEAN_MOTION_DOT":6.58e-6,"MEAN_MOTION_DDOT":0},{"OBJECT_NAME":"COSMOS 2251 DEB","OBJECT_ID":"1993-036AYL","EPOCH":"2026-04-26T14:52:53.776704","MEAN_MOTION":14.35131615,"ECCENTRICITY":0.00236536,"INCLINATION":74.0313,"RA_OF_ASC_NODE":75.2661,"ARG_OF_PERICENTER":115.9321,"MEAN_ANOMALY":244.4273,"EPHEMERIS_TYPE":0,"CLASSIFICATION_TYPE":"U","NORAD_CAT_ID":36073,"ELEMENT_SET_NO":999,"REV_AT_EPOCH":72142,"BSTAR":0.00019025616,"MEAN_MOTION_DOT":5.19e-6,"MEAN_MOTION_DDOT":0},{"OBJECT_NAME":"COSMOS 2251 DEB","OBJECT_ID":"1993-036AYM","EPOCH":"2026-04-27T04:23:53.415168","MEAN_MOTION":14.44780952,"ECCENTRICITY":0.00437795,"INCLINATION":73.9902,"RA_OF_ASC_NODE":87.7724,"ARG_OF_PERICENTER":152.7959,"MEAN_ANOMALY":207.5506,"EPHEMERIS_TYPE":0,"CLASSIFICATION_TYPE":"U","NORAD_CAT_ID":36074,"ELEMENT_SET_NO":999,"REV_AT_EPOCH":87865,"BSTAR":0.00083262942,"MEAN_MOTION_DOT":2.9e-5,"MEAN_MOTION_DDOT":0},{"OBJECT_NAME":"COSMOS 2251 DEB","OBJECT_ID":"1993-036AYT","EPOCH":"2026-04-21T11:09:18.248256","MEAN_MOTION":14.34707469,"ECCENTRICITY":0.00850197,"INCLINATION":74.0659,"RA_OF_ASC_NODE":36.0385,"ARG_OF_PERICENTER":33.7524,"MEAN_ANOMALY":326.9,"EPHEMERIS_TYPE":0,"CLASSIFICATION_TYPE":"U","NORAD_CAT_ID":36366,"ELEMENT_SET_NO":999,"REV_AT_EPOCH":88148,"BSTAR":0.0012449999,"MEAN_MOTION_DOT":3.648e-5,"MEAN_MOTION_DDOT":0},{"OBJECT_NAME":"COSMOS 2251 DEB","OBJECT_ID":"1993-036AYU","EPOCH":"2026-04-26T09:33:23.299776","MEAN_MOTION":13.86927497,"ECCENTRICITY":0.02619529,"INCLINATION":74.1021,"RA_OF_ASC_NODE":4.1724,"ARG_OF_PERICENTER":45.315,"MEAN_ANOMALY":316.8993,"EPHEMERIS_TYPE":0,"CLASSIFICATION_TYPE":"U","NORAD_CAT_ID":36367,"ELEMENT_SET_NO":999,"REV_AT_EPOCH":59396,"BSTAR":0.0010598538,"MEAN_MOTION_DOT":1.603e-5,"MEAN_MOTION_DDOT":0},{"OBJECT_NAME":"COSMOS 2251 DEB","OBJECT_ID":"1993-036AYW","EPOCH":"2026-04-25T09:51:30.616128","MEAN_MOTION":14.76672986,"ECCENTRICITY":0.00132046,"INCLINATION":74.0293,"RA_OF_ASC_NODE":169.3312,"ARG_OF_PERICENTER":227.1673,"MEAN_ANOMALY":132.8393,"EPHEMERIS_TYPE":0,"CLASSIFICATION_TYPE":"U","NORAD_CAT_ID":36369,"ELEMENT_SET_NO":999,"REV_AT_EPOCH":87893,"BSTAR":0.00114062,"MEAN_MOTION_DOT":7.966e-5,"MEAN_MOTION_DDOT":0},{"OBJECT_NAME":"COSMOS 2251 DEB","OBJECT_ID":"1993-036AYY","EPOCH":"2026-04-27T02:26:42.894240","MEAN_MOTION":14.7401741,"ECCENTRICITY":0.00076392,"INCLINATION":74.0109,"RA_OF_ASC_NODE":257.6813,"ARG_OF_PERICENTER":269.0004,"MEAN_ANOMALY":91.0294,"EPHEMERIS_TYPE":0,"CLASSIFICATION_TYPE":"U","NORAD_CAT_ID":36371,"ELEMENT_SET_NO":999,"REV_AT_EPOCH":73437,"BSTAR":0.0017227763,"MEAN_MOTION_DOT":0.00011321,"MEAN_MOTION_DDOT":0},{"OBJECT_NAME":"COSMOS 2251 DEB","OBJECT_ID":"1993-036AZG","EPOCH":"2026-04-26T12:55:02.153568","MEAN_MOTION":14.36310117,"ECCENTRICITY":0.0046166,"INCLINATION":74.0128,"RA_OF_ASC_NODE":58.9116,"ARG_OF_PERICENTER":157.8867,"MEAN_ANOMALY":321.6214,"EPHEMERIS_TYPE":0,"CLASSIFICATION_TYPE":"U","NORAD_CAT_ID":36379,"ELEMENT_SET_NO":999,"REV_AT_EPOCH":66763,"BSTAR":0.000240307,"MEAN_MOTION_DOT":6.85e-6,"MEAN_MOTION_DDOT":0},{"OBJECT_NAME":"COSMOS 2251 DEB","OBJECT_ID":"1993-036AZN","EPOCH":"2026-04-26T15:15:51.501600","MEAN_MOTION":14.75873796,"ECCENTRICITY":0.01345007,"INCLINATION":73.9685,"RA_OF_ASC_NODE":250.0157,"ARG_OF_PERICENTER":32.0725,"MEAN_ANOMALY":328.8541,"EPHEMERIS_TYPE":0,"CLASSIFICATION_TYPE":"U","NORAD_CAT_ID":36385,"ELEMENT_SET_NO":999,"REV_AT_EPOCH":87090,"BSTAR":0.0012686763,"MEAN_MOTION_DOT":0.0001008,"MEAN_MOTION_DDOT":0}]
