COSMOS 2251 DEB         
1 36047U 93036AXJ 26117.09277866  .00038823  00000+0  26775-2 0  9995
2 36047  74.0313  58.6044 0004430 150.3381 209.8061 15.05619779679704
COSMOS 2251 DEB         
1 36048U 93036AXK 26116.24239344  .00000667  00000+0  22789-3 0  9998
2 36048  74.0575  51.8841 0025129  72.1189  80.2230 14.38075176874359
COSMOS 2251 DEB         
1 36049U 93036AXL 26116.28216573  .00005857  00000+0  11261-2 0  9990
2 36049  74.0301 221.1013 0011327 276.9137  83.0741 14.63813173873321
COSMOS 2251 DEB         
1 36050U 93036AXM 26115.21223340  .00006115  00000+0  41811-3 0  9997
2 36050  74.0300 281.6313 0083437 325.1476  34.4264 15.03509352690390
COSMOS 2251 DEB         
1 36053U 93036AXQ 26116.65925704  .00008911  00000+0  18810-2 0  9990
2 36053  73.8696 253.3462 0030996 173.6406 186.5159 14.59202621894117
COSMOS 2251 DEB         
1 36058U 93036AXV 26116.76347629  .00001804  00000+0  38116-3 0  9997
2 36058  74.0188 135.9507 0046828 235.8568 123.8152 14.59435444680804
COSMOS 2251 DEB         
1 36060U 93036AXX 26116.35457797  .00000850  00000+0  26502-3 0  9999
2 36060  74.0301 344.8577 0014336  54.0596 306.1888 14.42323501869503
COSMOS 2251 DEB         
1 36061U 93036AXY 26117.31037733  .00000658  00000+0  24312-3 0  9994
2 36061  74.0211 111.5629 0038519 169.9205 190.2729 14.33954006670475
COSMOS 2251 DEB         
1 36073U 93036AYL 26116.62006686  .00000519  00000+0  19026-3 0  9995
2 36073  74.0313  75.2661 0023653 115.9321 244.4273 14.35131615721429
COSMOS 2251 DEB         
1 36074U 93036AYM 26117.18325712  .00002900  00000+0  83263-3 0  9992
2 36074  73.9902  87.7724 0043779 152.7959 207.5506 14.44780952878658
COSMOS 2251 DEB         
1 36366U 93036AYT 26111.46479454  .00003648  00000+0  12450-2 0  9993
2 36366  74.0659  36.0385 0085019  33.7524 326.9000 14.34707469881483
COSMOS 2251 DEB         
1 36367U 93036AYU 26116.39818634  .00001603  00000+0  10599-2 0  9999
2 36367  74.1021   4.1724 0261952  45.3150 316.8993 13.86927497593960
COSMOS 2251 DEB         
1 36369U 93036AYW 26115.41077102  .00007966  00000+0  11406-2 0  9996
2 36369  74.0293 169.3312 0013204 227.1673 132.8393 14.76672986878937
COSMOS 2251 DEB         
1 36371U 93036AYY 26117.10188535  .00011321  00000+0  17228-2 0  9998
2 36371  74.0109 257.6813 0007639 269.0004  91.0294 14.74017410734379
COSMOS 2251 DEB         
1 36379U 93036AZG 26116.53821937  .00000685  00000+0  24031-3 0  9994
2 36379  74.0128  58.9116 0046166 157.8867 321.6214 14.36310117667631
COSMOS 2251 DEB         
1 36385U 93036AZN 26116.63601275  .00010080  00000+0  12687-2 0  9996
2 36385  73.9685 250.0157 0134500  32.0725 328.8541 14.75873796870909
